[{"OBJECT_NAME":"KUIPER-00110","OBJECT_ID":"2025-171S","EPOCH":"2026-03-09T13:35:28.015008","MEAN_MOTION":14.79991247,"ECCENTRICITY":0.0001715,"INCLINATION":51.8992,"RA_OF_ASC_NODE":168.6928,"ARG_OF_PERICENTER":192.4753,"MEAN_ANOMALY":167.6167,"EPHEMERIS_TYPE":0,"CLASSIFICATION_TYPE":"U","NORAD_CAT_ID":65148,"ELEMENT_SET_NO":999,"REV_AT_EPOCH":3272,"BSTAR":0.00082011,"MEAN_MOTION_DOT":6.045e-5,"MEAN_MOTION_DDOT":0},{"OBJECT_NAME":"CZ-4C R\/B","OBJECT_ID":"2016-049B","EPOCH":"2026-03-09T17:16:12.201024","MEAN_MOTION":14.71492557,"ECCENTRICITY":0.00987138,"INCLINATION":97.9709,"RA_OF_ASC_NODE":136.8918,"ARG_OF_PERICENTER":147.0994,"MEAN_ANOMALY":213.641,"EPHEMERIS_TYPE":0,"CLASSIFICATION_TYPE":"U","NORAD_CAT_ID":41728,"ELEMENT_SET_NO":999,"REV_AT_EPOCH":51350,"BSTAR":0.00015792984,"MEAN_MOTION_DOT":1.003e-5,"MEAN_MOTION_DDOT":0}]
